MEAN_MOTION;ECCENTRICITY;INCLINATION;RA_OF_ASC_NODE;ARG_OF_PERICENTER;MEAN_ANOMALY;BSTAR;MEAN_MOTION_DOT;MEAN_MOTION_DDOT;TYPE
14.10879227;0.0013896;19.9598;235.1314;260.5496;99.3345;1.3224E-5;2.89E-6;0;Orbcomm
14.10879244;0.0013887;19.9598;234.7034;261.3175;98.5662;1.374E-5;2.9E-6;0;Orbcomm
14.1087938;0.0013907;19.9597;230.856;268.294;91.5897;2.0388E-5;3.02E-6;0;Orbcomm
14.10879293;0.0013852;19.9594;229.1447;271.4661;88.4168;1.6109E-5;2.94E-6;0;Orbcomm
14.10879345;0.0013837;19.9593;224.872;279.2849;80.5984;1.7168E-5;2.96E-6;0;Orbcomm
14.108794;0.0013788;19.9591;223.1596;282.3891;77.4993;1.8415E-5;2.98E-6;0;Orbcomm
14.108794;0.0013794;19.9591;222.7319;283.2237;76.6631;1.8857E-5;2.99E-6;0;Orbcomm
14.10879436;0.0013777;19.9592;218.885;290.1856;69.7076;1.786E-5;2.97E-6;0;Orbcomm
14.10879434;0.0013747;19.9593;218.0273;291.6681;68.2285;1.6591E-5;2.95E-6;0;Orbcomm
14.10879338;0.0013777;19.9596;217.1723;293.1854;66.7099;1.1419E-5;2.86E-6;0;Orbcomm
14.10879353;0.0013776;19.9598;212.8971;300.871;59.036;1.0164E-5;2.83E-6;0;Orbcomm
14.10879271;0.0013772;19.9599;212.0418;302.4471;57.4598;6.5261E-6;2.77E-6;0;Orbcomm
14.10879427;0.0013715;19.9594;211.173;304.9196;55.0028;1.5653E-5;2.93E-6;0;Orbcomm
14.10879518;0.0013711;19.96;206.4682;313.5176;46.4132;1.6857E-5;2.95E-6;0;Orbcomm
14.10879556;0.0013651;19.9595;205.183;315.9619;43.971;1.7879E-5;2.97E-6;0;Orbcomm
14.10879533;0.0013669;19.9592;200.9063;323.6627;36.2885;1.4943E-5;2.92E-6;0;Orbcomm
14.10879167;0.0013977;19.9583;199.6129;326.4932;33.4651;6.7407E-6;2.77E-6;0;Orbcomm
14.10879242;0.0013998;19.9583;194.9123;334.8204;25.1536;8.9696E-6;2.81E-6;0;Orbcomm
14.10879326;0.0013788;19.9586;187.2207;348.4601;11.5523;5.0059E-6;2.74E-6;0;Orbcomm
14.10879253;0.001379;19.9584;182.5199;357.1346;2.8969;1.8725E-6;2.68E-6;0;Orbcomm
14.10879122;0.0013825;19.9584;181.2381;359.1732;0.8646;-1.9117E-6;2.61E-6;0;Orbcomm
14.10879187;0.001383;19.9583;177.3919;6.2246;353.834;5.6541E-8;2.65E-6;0;Orbcomm
14.10879187;0.001383;19.9583;164.1455;30.3124;329.8078;5.6541E-8;2.65E-6;0;Orbcomm
14.10879985;0.0013776;19.959;146.1936;63.0917;297.0874;2.1228E-5;3.03E-6;0;Orbcomm
14.10879988;0.0013768;19.959;145.7664;63.8949;296.2871;2.104E-5;3.03E-6;0;Orbcomm
14.1088016;0.001377;19.9589;141.9201;70.942;289.2491;2.6309E-5;3.12E-6;0;Orbcomm
14.10880189;0.0013776;19.9592;140.2085;74.3542;285.8385;2.568E-5;3.11E-6;0;Orbcomm
14.10880053;0.0013681;19.9593;139.7814;75.1;285.0929;1.9274E-5;3.0E-6;0;Orbcomm
14.10880213;0.0013623;19.9591;135.9324;81.7651;278.4343;2.6182E-5;3.12E-6;0;Orbcomm
14.10880165;0.0013642;19.9595;134.22;85.1876;275.0126;1.993E-5;3.01E-6;0;Orbcomm
14.10880292;0.0013696;19.9591;129.945;92.818;267.3799;2.5552E-5;3.11E-6;0;Orbcomm
14.10880169;0.0013693;19.9592;128.2338;96.1569;264.0413;1.9233E-5;3.0E-6;0;Orbcomm
14.10880169;0.0013693;19.9592;128.2338;96.1569;264.0413;1.9233E-5;3.0E-6;0;Orbcomm
14.10880394;0.0013826;19.9597;123.9463;103.6269;256.579;2.5918E-5;3.12E-6;0;Orbcomm
14.10880155;0.0013896;19.9602;122.2293;107.295;252.9037;4.6991E-6;2.73E-6;0;Orbcomm
14.10880275;0.0013895;19.9603;117.528;115.634;244.551;8.8551E-6;2.81E-6;0;Orbcomm
14.10880105;0.0013915;19.9601;116.6726;117.3376;242.8444;2.4275E-6;2.69E-6;0;Orbcomm
14.10880122;0.0013924;19.9602;116.2438;117.8571;242.3247;2.0817E-6;2.68E-6;0;Orbcomm
14.10880112;0.0013913;19.9604;111.9712;125.8668;234.3038;1.6754E-6;2.68E-6;0;Orbcomm
14.10880096;0.0013928;19.9604;111.1156;127.419;232.7488;6.9361E-7;2.66E-6;0;Orbcomm
14.10880187;0.0013963;19.9607;105.5595;137.1581;222.9914;2.8553E-6;2.7E-6;0;Orbcomm
14.1088008;0.0013986;19.9609;104.275;139.7238;220.4222;-1.3041E-6;2.62E-6;0;Orbcomm
14.10880106;0.0013989;19.9609;100.4288;146.8172;213.3124;-6.2779E-7;2.64E-6;0;Orbcomm
14.10880174;0.0013971;19.9606;98.2881;150.5368;209.5869;1.3132E-6;2.67E-6;0;Orbcomm
14.10880302;0.0013978;19.9607;93.5862;159.2051;200.8938;7.4164E-6;2.78E-6;0;Orbcomm
14.10880315;0.0013991;19.961;92.3027;161.496;198.5956;6.8157E-6;2.77E-6;0;Orbcomm
14.10880191;0.0014001;19.9615;87.6002;169.9765;190.0925;-1.1063E-6;2.63E-6;0;Orbcomm
14.10880499;0.0014064;19.9627;81.6112;180.8756;179.1716;9.6729E-6;2.82E-6;0;Orbcomm
14.10880456;0.0013987;19.9611;80.7587;182.029;178.0027;1.0083E-5;2.83E-6;0;Orbcomm
14.10880431;0.0013972;19.9615;75.6287;191.2642;168.7463;7.6378E-6;2.79E-6;0;Orbcomm
14.10880439;0.0013965;19.9615;74.7722;192.7445;167.2623;7.3365E-6;2.78E-6;0;Orbcomm
14.10880596;0.0013912;19.9614;69.6429;202.0048;157.9753;1.4188E-5;2.91E-6;0;Orbcomm
14.108806;0.0013919;19.9615;68.7862;203.4908;156.488;1.3378E-5;2.89E-6;0;Orbcomm
14.10880619;0.0013847;19.9612;63.656;212.6691;147.2844;1.3966E-5;2.9E-6;0;Orbcomm
14.10880625;0.0013841;19.9615;62.7978;214.1309;145.8239;1.1988E-5;2.87E-6;0;Orbcomm
14.10880738;0.0013726;19.962;40.9987;253.6118;106.2813;9.2466E-6;2.82E-6;0;Orbcomm
14.10880789;0.0013749;19.9616;35.013;264.4579;95.4294;9.1324E-6;2.81E-6;0;Orbcomm
14.10880809;0.0013714;19.962;33.3001;267.4824;92.402;8.4113E-6;2.8E-6;0;Orbcomm
14.10880799;0.0013687;19.9618;27.742;277.6835;82.2031;8.076E-6;2.79E-6;0;Orbcomm
14.10880802;0.0013743;19.9612;17.4801;296.2941;63.6124;7.4882E-6;2.78E-6;0;Orbcomm
14.10880951;0.0013719;19.9613;17.0519;297.056;62.8469;1.1926E-5;2.86E-6;0;Orbcomm
14.10880798;0.0013719;19.9612;15.7667;299.3485;60.5562;6.1919E-6;2.76E-6;0;Orbcomm
14.10880828;0.0013715;19.9612;15.3392;300.1663;59.7385;7.6613E-6;2.79E-6;0;Orbcomm
14.10880969;0.0013758;19.961;11.4897;306.8535;53.0672;1.3211E-5;2.89E-6;0;Orbcomm
14.10880941;0.0013734;19.9612;10.6337;308.5204;51.3971;1.1452E-5;2.86E-6;0;Orbcomm
14.10880884;0.0013728;19.961;9.7779;310.0533;49.8674;9.046E-6;2.81E-6;0;Orbcomm
14.1088059;0.0013749;19.9614;357.3799;332.3887;27.5825;-6.5009E-6;2.53E-6;0;Orbcomm
14.10880886;0.0013763;19.9612;352.6782;340.6722;19.3174;5.2951E-6;2.74E-6;0;Orbcomm
14.10881125;0.0013737;19.9613;351.3958;343.3894;16.6087;1.2926E-5;2.88E-6;0;Orbcomm
14.10881795;0.0013775;19.9616;347.5412;351.0657;8.9589;5.1122E-5;3.58E-6;0;Orbcomm
14.10881757;0.0013803;19.9624;341.5623;1.9079;358.1318;4.1455E-5;3.4E-6;0;Orbcomm
14.10883035;0.0013824;19.9615;328.7411;26.035;334.0878;7.2814E-5;3.97E-6;0;Orbcomm
14.10883028;0.0013864;19.9619;323.1836;36.9941;323.1376;6.2056E-5;3.77E-6;0;Orbcomm
14.10882456;0.001387;19.9627;322.321;41.4974;318.6357;3.8865E-5;3.35E-6;0;Orbcomm
14.108821;0.0013707;19.9631;321.8932;42.0207;318.1249;2.2592E-5;3.06E-6;0;Orbcomm
14.10881964;0.001388;19.9626;312.4879;59.7092;300.4667;1.0583E-5;2.84E-6;0;Orbcomm
14.10880752;0.0013739;19.962;305.2251;72.8856;287.2927;-3.3393E-5;2.04E-6;0;Orbcomm
14.10880703;0.0013547;19.9613;300.5198;82.019;278.1837;-3.1948E-5;2.06E-6;0;Orbcomm
14.10881531;0.0013401;19.9615;299.236;84.1852;276.0078;-2.5404E-6;2.6E-6;0;Orbcomm
14.10881967;0.0013716;19.966;293.2072;96.0627;264.1787;-6.8582E-6;2.52E-6;0;Orbcomm
14.10881695;0.0013648;19.967;288.5037;104.4474;255.7452;-1.7044E-5;2.34E-6;0;Orbcomm
14.1088113;0.0013676;19.9652;287.2208;106.6636;253.5284;-3.5025E-5;2.01E-6;0;Orbcomm
14.10881042;0.0013604;19.9633;282.5202;115.289;244.8936;-2.68E-5;2.16E-6;0;Orbcomm
14.10882647;0.0013489;19.9658;276.1121;125.1032;235.064;8.1333E-5;4.13E-6;0;Orbcomm
14.10881167;0.0013665;19.9621;270.5559;136.7514;223.3921;-7.2761E-6;2.52E-6;0;Orbcomm
14.10881465;0.0013845;19.9586;268.8362;139.1064;221.0451;1.1363E-5;2.85E-6;0;Orbcomm
14.10881277;0.0013618;19.9582;264.1574;146.8037;213.3194;1.385E-5;2.9E-6;0;Orbcomm
14.10881174;0.0013626;19.9583;258.6017;156.8731;203.2279;7.7314E-6;2.79E-6;0;Orbcomm
14.10881149;0.0013612;19.959;258.1733;157.4309;202.6689;6.7999E-6;2.77E-6;0;Orbcomm
14.10881154;0.0013511;19.9594;252.1621;165.0575;195.0242;-1.2204E-5;2.43E-6;0;Orbcomm
14.10881104;0.0013432;19.9583;246.6011;175.0707;184.9881;-1.0104E-5;2.47E-6;0;Orbcomm
14.10881333;0.0013489;19.9585;241.0465;185.2441;174.7854;-5.8597E-8;2.65E-6;0;Orbcomm
14.10920385;0.0009527;19.9573;220.8934;237.1867;122.7724;0.0096222;0.00017822;0;Orbcomm
14.10884481;0.0014283;19.9464;216.1681;230.899;129.0819;0.00076177;1.652E-5;0;Orbcomm
14.10881411;0.0013669;19.9531;215.3686;233.2629;126.5941;6.67E-6;2.77E-6;0;Orbcomm
14.10881541;0.0013718;19.9531;211.0965;241.271;118.6324;1.2092E-5;2.87E-6;0;Orbcomm
14.10882115;0.001369;19.9532;209.809;243.8443;116.064;4.1403E-5;3.4E-6;0;Orbcomm
14.10882225;0.0013679;19.9531;204.2522;253.8657;106.0252;4.0117E-5;3.38E-6;0;Orbcomm
14.10882262;0.0013676;19.9533;203.8253;254.6582;105.2308;4.1254E-5;3.4E-6;0;Orbcomm
14.10882397;0.0013698;19.9535;198.2681;264.6971;95.1863;4.1014E-5;3.4E-6;0;Orbcomm
14.10882387;0.0013701;19.9535;197.84;265.4788;94.4057;4.0148E-5;3.38E-6;0;Orbcomm
14.10882188;0.0013805;19.9513;193.5551;273.4632;86.4303;3.0535E-5;3.21E-6;0;Orbcomm
14.1088226;0.001382;19.9518;191.8445;276.4621;83.422;3.1562E-5;3.22E-6;0;Orbcomm
14.10882511;0.0013753;19.9535;190.9962;277.9736;81.9052;3.8354E-5;3.35E-6;0;Orbcomm
14.10882586;0.0013751;19.9536;187.5774;284.181;75.7069;3.8134E-5;3.34E-6;0;Orbcomm
14.10882647;0.0013703;19.9535;185.8667;287.2789;72.6125;3.8873E-5;3.36E-6;0;Orbcomm
14.10882698;0.0013702;19.9536;181.593;295.1416;64.7566;3.6228E-5;3.31E-6;0;Orbcomm
14.10882623;0.0013694;19.9539;180.7384;296.6695;63.2296;3.2111E-5;3.23E-6;0;Orbcomm
14.10882542;0.0013691;19.954;179.8837;298.2794;61.6216;2.8118E-5;3.16E-6;0;Orbcomm
14.10882682;0.001369;19.9542;175.61;306.0268;53.8878;3.1345E-5;3.22E-6;0;Orbcomm
14.10882625;0.0013727;19.9545;173.8985;309.1449;50.7742;2.8284E-5;3.16E-6;0;Orbcomm
14.10882774;0.0013706;19.9555;169.1963;317.418;42.5191;2.94E-5;3.18E-6;0;Orbcomm
14.10882707;0.0013735;19.9565;167.911;319.5774;40.3625;2.4478E-5;3.09E-6;0;Orbcomm
14.1088279;0.0013738;19.9569;163.209;327.9752;31.9833;2.3442E-5;3.07E-6;0;Orbcomm
14.10882676;0.0013732;19.9573;161.9259;330.1569;29.8059;1.4593E-5;2.91E-6;0;Orbcomm
14.10882485;0.0013715;19.9573;157.653;337.5938;22.3865;1.1083E-6;2.67E-6;0;Orbcomm
14.10882548;0.0013701;19.9576;155.944;340.6921;19.2967;2.9275E-6;2.7E-6;0;Orbcomm
14.1088261;0.0013686;19.9579;151.2434;349.124;10.8876;4.1305E-6;2.72E-6;0;Orbcomm
